ONEWEB-0473             
1 51653U 22012AH  26199.48449730 -.00000599  00000+0 -17533-2 0  9998
2 51653  87.8813  30.0382 0001847  90.4820 269.6519 13.10374808213409
ONEWEB-0474             
1 51654U 22012AJ  26199.24693227 -.00000692  00000+0 -20178-2 0  9998
2 51654  87.8821  30.0729 0001618  96.0030 264.1282 13.10372347213363
ONEWEB-0475             
1 51655U 22012AK  26199.20430048 -.00000026  00000+0 -10020-3 0  9992
2 51655  87.9150 359.7023 0001522 113.6571 246.4720 13.17648110217778
ONEWEB-0490             
1 54113U 22138A   26199.52273120  .00000125  00000+0  27897-3 0  9992
2 54113  87.9193 298.7292 0002101 105.0443 255.0922 13.19727104180967
ONEWEB-0492             
1 54114U 22138B   26199.54799673  .00000045  00000+0  79365-4 0  9990
2 54114  87.9184 298.7234 0002249 102.7634 257.3751 13.19723898180975
ONEWEB-0495             
1 54115U 22138C   26199.52589238  .00000082  00000+0  17173-3 0  9992
2 54115  87.9186 298.7306 0002317 116.5954 243.5417 13.19727037180955
ONEWEB-0497             
1 54116U 22138D   26199.31106777  .00000048  00000+0  88494-4 0  9990
2 54116  87.9192 298.7673 0002047 103.0763 257.0598 13.19723040180915
ONEWEB-0499             
1 54117U 22138E   26199.29449432  .00000074  00000+0  15145-3 0  9997
2 54117  87.9185 298.7773 0002021 107.3819 252.7535 13.19724940180924
ONEWEB-0500             
1 54118U 22138F   26199.52431983  .00000138  00000+0  31300-3 0  9998
2 54118  87.9190 298.7282 0002081  98.6666 261.4702 13.19726481180963
ONEWEB-0501             
1 54119U 22138G   26199.25106700  .00000021  00000+0  20582-4 0  9997
2 54119  87.9193 298.7825 0002162 111.6988 248.4375 13.19726235180905
ONEWEB-0502             
1 54120U 22138H   26199.31264460  .00000083  00000+0  17546-3 0  9997
2 54120  87.9194 298.7591 0001959 107.9525 252.1821 13.19723565180930
ONEWEB-0503             
1 54121U 22138J   26199.52905060  .00000066  00000+0  13336-3 0  9993
2 54121  87.9195 298.7229 0001751  99.5939 260.5391 13.19726958180951
ONEWEB-0504             
1 54122U 22138K   26199.28896454  .00000075  00000+0  15501-3 0  9999
2 54122  87.9194 298.7747 0001917 107.1845 252.9498 13.19726840180933
ONEWEB-0505             
1 54123U 22138L   26199.28579364  .00000112  00000+0  24652-3 0  9997
2 54123  87.9190 298.7757 0002115 114.1971 245.9383 13.19724245180910
ONEWEB-0506             
1 54124U 22138M   26199.56381444 -.00000006  00000+0 -48496-4 0  9996
2 54124  87.9195 298.7185 0002084 110.1844 249.9513 13.19726074180945
ONEWEB-0507             
1 54125U 22138N   26199.28106189  .00000102  00000+0  22190-3 0  9994
2 54125  87.9186 298.7836 0002132 107.5910 252.5456 13.19727400180958
ONEWEB-0508             
1 54126U 22138P   26199.50536193  .00000006  00000+0 -17176-4 0  9995
2 54126  87.9186 298.7390 0002285 109.9010 250.2369 13.19726356180968
ONEWEB-0509             
1 54127U 22138Q   26199.55590238  .00000023  00000+0  25527-4 0  9998
2 54127  87.9196 298.7216 0002076 105.2266 254.9097 13.19724698180941
ONEWEB-0510             
1 54128U 22138R   26199.19229552  .00000072  00000+0  14599-3 0  9997
2 54128  87.9184 268.2571 0001941  87.0360 273.0995 13.20770332183374
ONEWEB-0511             
1 54129U 22138S   26199.55273775  .00000094  00000+0  20231-3 0  9998
2 54129  87.9190 298.7235 0001795 104.9091 255.2240 13.19723554180974
ONEWEB-0512             
1 54130U 22138T   26199.31738458 -.00000058  00000+0 -17742-3 0  9993
2 54130  87.9184 298.7735 0001965 111.0688 249.0655 13.19726077180912
ONEWEB-0513             
1 54131U 22138U   26199.53755867  .00000066  00000+0  13188-3 0  9998
2 54131  87.9191 298.6698 0001734 127.5489 232.5802 13.20269777180858
ONEWEB-0514             
1 54132U 22138V   26199.25737000 -.00000049  00000+0 -15428-3 0  9999
2 54132  87.9192 298.7816 0001972  97.4264 262.7093 13.19725897180926
ONEWEB-0515             
1 54133U 22138W   26199.63337914  .00000000  00000+0 -32325-4 0  9994
2 54133  87.9186 268.1659 0002713  84.7586 275.3857 13.20771986183457
ONEWEB-0516             
1 54134U 22138X   26199.30791488  .00000105  00000+0  22999-3 0  9999
2 54134  87.9188 298.7758 0002163 101.8444 258.2931 13.19723974180937
ONEWEB-0517             
1 54135U 22138Y   26199.28738473  .00000093  00000+0  19910-3 0  9997
2 54135  87.9191 298.7739 0001769 100.5284 259.6049 13.19727110180931
ONEWEB-0518             
1 54136U 22138Z   26199.30634088  .00000085  00000+0  17900-3 0  9996
2 54136  87.9184 298.7778 0002237 100.6527 259.4858 13.19724157180933
ONEWEB-0519             
1 54137U 22138AA  26199.25578628  .00000036  00000+0  58333-4 0  9990
2 54137  87.9192 298.7815 0001815  99.0025 261.1313 13.19723627180937
ONEWEB-0520             
1 54138U 22138AB  26199.29054369  .00000018  00000+0  11435-4 0  9998
2 54138  87.9191 298.7749 0002126 107.9540 252.1825 13.19726643180928
ONEWEB-0521             
1 54139U 22138AC  26199.55114838 -.00000069  00000+0 -20483-3 0  9996
2 54139  87.9194 298.7121 0001817  97.2720 262.8620 13.19725564180903
