OBJECT_NAME,OBJECT_ID,EPOCH,MEAN_MOTION,ECCENTRICITY,INCLINATION,RA_OF_ASC_NODE,ARG_OF_PERICENTER,MEAN_ANOMALY,EPHEMERIS_TYPE,CLASSIFICATION_TYPE,NORAD_CAT_ID,ELEMENT_SET_NO,REV_AT_EPOCH,BSTAR,MEAN_MOTION_DOT,MEAN_MOTION_DDOT
ONEWEB-0473,2022-012AH,2026-07-18T11:37:40.566720,13.10374808,.00018471,87.8813,30.0382,90.4820,269.6519,0,U,51653,999,21340,-.1753348E-2,-.599E-5,0
ONEWEB-0474,2022-012AJ,2026-07-18T05:55:34.948128,13.10372347,.00016182,87.8821,30.0729,96.0030,264.1282,0,U,51654,999,21336,-.20178361E-2,-.692E-5,0
ONEWEB-0475,2022-012AK,2026-07-18T04:54:11.561472,13.17648110,.0001522,87.9150,359.7023,113.6571,246.4720,0,U,51655,999,21777,-.10020355E-3,-.26E-6,0
ONEWEB-0490,2022-138A,2026-07-18T12:32:43.975680,13.19727104,.00021013,87.9193,298.7292,105.0443,255.0922,0,U,54113,999,18096,.27896511E-3,.125E-5,0
ONEWEB-0492,2022-138B,2026-07-18T13:09:06.917472,13.19723898,.0002249,87.9184,298.7234,102.7634,257.3751,0,U,54114,999,18097,.79364527E-4,.45E-6,0
ONEWEB-0495,2022-138C,2026-07-18T12:37:17.101632,13.19727037,.00023175,87.9186,298.7306,116.5954,243.5417,0,U,54115,999,18095,.17172908E-3,.82E-6,0
ONEWEB-0497,2022-138D,2026-07-18T07:27:56.255328,13.19723040,.00020477,87.9192,298.7673,103.0763,257.0598,0,U,54116,999,18091,.88493606E-4,.48E-6,0
ONEWEB-0499,2022-138E,2026-07-18T07:04:04.309248,13.19724940,.00020214,87.9185,298.7773,107.3819,252.7535,0,U,54117,999,18092,.15145009E-3,.74E-6,0
ONEWEB-0500,2022-138F,2026-07-18T12:35:01.233312,13.19726481,.0002081,87.9190,298.7282,98.6666,261.4702,0,U,54118,999,18096,.31299537E-3,.138E-5,0
ONEWEB-0501,2022-138G,2026-07-18T06:01:32.188800,13.19726235,.00021622,87.9193,298.7825,111.6988,248.4375,0,U,54119,999,18090,.20581768E-4,.21E-6,0
ONEWEB-0502,2022-138H,2026-07-18T07:30:12.493440,13.19723565,.00019595,87.9194,298.7591,107.9525,252.1821,0,U,54120,999,18093,.17546079E-3,.83E-6,0
ONEWEB-0503,2022-138J,2026-07-18T12:41:49.971840,13.19726958,.0001751,87.9195,298.7229,99.5939,260.5391,0,U,54121,999,18095,.13336292E-3,.66E-6,0
ONEWEB-0504,2022-138K,2026-07-18T06:56:06.536256,13.19726840,.00019177,87.9194,298.7747,107.1845,252.9498,0,U,54122,999,18093,.15500631E-3,.75E-6,0
ONEWEB-0505,2022-138L,2026-07-18T06:51:32.570496,13.19724245,.00021151,87.9190,298.7757,114.1971,245.9383,0,U,54123,999,18091,.24651556E-3,.112E-5,0
ONEWEB-0506,2022-138M,2026-07-18T13:31:53.567616,13.19726074,.00020844,87.9195,298.7185,110.1844,249.9513,0,U,54124,999,18094,-.48496361E-4,-.6E-7,0
ONEWEB-0507,2022-138N,2026-07-18T06:44:43.747296,13.19727400,.00021328,87.9186,298.7836,107.5910,252.5456,0,U,54125,999,18095,.22190262E-3,.102E-5,0
ONEWEB-0508,2022-138P,2026-07-18T12:07:43.270752,13.19726356,.0002285,87.9186,298.7390,109.9010,250.2369,0,U,54126,999,18096,-.17175773E-4,.6E-7,0
ONEWEB-0509,2022-138Q,2026-07-18T13:20:29.965632,13.19724698,.0002076,87.9196,298.7216,105.2266,254.9097,0,U,54127,999,18094,.25526951E-4,.23E-6,0
ONEWEB-0510,2022-138R,2026-07-18T04:36:54.332928,13.20770332,.00019411,87.9184,268.2571,87.0360,273.0995,0,U,54128,999,18337,.14598914E-3,.72E-6,0
ONEWEB-0511,2022-138S,2026-07-18T13:15:56.541600,13.19723554,.00017958,87.9190,298.7235,104.9091,255.2240,0,U,54129,999,18097,.20231222E-3,.94E-6,0
ONEWEB-0512,2022-138T,2026-07-18T07:37:02.027712,13.19726077,.00019656,87.9184,298.7735,111.0688,249.0655,0,U,54130,999,18091,-.17742137E-3,-.58E-6,0
ONEWEB-0513,2022-138U,2026-07-18T12:54:05.069088,13.20269777,.00017344,87.9191,298.6698,127.5489,232.5802,0,U,54131,999,18085,.13188058E-3,.66E-6,0
ONEWEB-0514,2022-138V,2026-07-18T06:10:36.768000,13.19725897,.0001972,87.9192,298.7816,97.4264,262.7093,0,U,54132,999,18092,-.15427988E-3,-.49E-6,0
ONEWEB-0515,2022-138W,2026-07-18T15:12:03.957696,13.20771986,.00027137,87.9186,268.1659,84.7586,275.3857,0,U,54133,999,18345,-.32324837E-4,0,0
ONEWEB-0516,2022-138X,2026-07-18T07:23:23.845632,13.19723974,.0002163,87.9188,298.7758,101.8444,258.2931,0,U,54134,999,18093,.2299927E-3,.105E-5,0
ONEWEB-0517,2022-138Y,2026-07-18T06:53:50.040672,13.19727110,.00017697,87.9191,298.7739,100.5284,259.6049,0,U,54135,999,18093,.19909938E-3,.93E-6,0
ONEWEB-0518,2022-138Z,2026-07-18T07:21:07.852032,13.19724157,.00022373,87.9184,298.7778,100.6527,259.4858,0,U,54136,999,18093,.17899755E-3,.85E-6,0
ONEWEB-0519,2022-138AA,2026-07-18T06:08:19.934592,13.19723627,.00018152,87.9192,298.7815,99.0025,261.1313,0,U,54137,999,18093,.58333218E-4,.36E-6,0
ONEWEB-0520,2022-138AB,2026-07-18T06:58:22.974816,13.19726643,.0002126,87.9191,298.7749,107.9540,252.1825,0,U,54138,999,18092,.11435383E-4,.18E-6,0
ONEWEB-0521,2022-138AC,2026-07-18T13:13:39.220032,13.19725564,.00018174,87.9194,298.7121,97.2720,262.8620,0,U,54139,999,18090,-.20482934E-3,-.69E-6,0
